CSS (TIANHE)            
1 48274U 21035A   24166.48020126  .00019480  00000+0  22183-3 0  9998
2 48274  41.4677  99.6201 0003603 225.2580 134.7966 15.61792731178676
